start=new Date('2022-10-02T00:00:00.000Z').valueOf();
sats=[{"MEAN_MOTION":"15.65416154","GP_ID":"213955243","MEAN_MOTION_DDOT":"0.0000000000000","COUNTRY_CODE":"US","FILE":"3588834","PERIAPSIS":"371.394","EPOCH":"2022-10-01T22:00:00.999936","CENTER_NAME":"EARTH","OBJECT_NAME":"STARLINK-4153","MEAN_ANOMALY":"270.6415","NORAD_CAT_ID":"53037","APOAPSIS":"372.694","RA_OF_ASC_NODE":"312.2066","BSTAR":"-0.01147300000000","TLE_LINE2":"2 53037  53.2174 312.2066 0000963  88.9973 270.6415 15.65416154 14080","OBJECT_ID":"2022-076BD","SEMIMAJOR_AXIS":"6750.179","MEAN_MOTION_DOT":"-0.01047636","INCLINATION":"53.2174","TLE_LINE1":"1 53037U 22076BD  22274.91667824 -.01047636  00000-0 -11473-1 0  9991","TIME_SYSTEM":"UTC","EPHEMERIS_TYPE":"0","SITE":"AFETR","ECCENTRICITY":"0.00009630","RCS_SIZE":"LARGE","MEAN_ELEMENT_THEORY":"SGP4","OBJECT_TYPE":"PAYLOAD","LAUNCH_DATE":"2022-07-07","CLASSIFICATION_TYPE":"U","REF_FRAME":"TEME","ARG_OF_PERICENTER":"88.9973","PERIOD":"91.988","DECAY_DATE":null,"ELEMENT_SET_NO":"999","REV_AT_EPOCH":"1408"},{"OBJECT_TYPE":"PAYLOAD","MEAN_ELEMENT_THEORY":"SGP4","CLASSIFICATION_TYPE":"U","LAUNCH_DATE":"2022-07-07","REF_FRAME":"TEME","REV_AT_EPOCH":"1408","ELEMENT_SET_NO":"999","DECAY_DATE":null,"PERIOD":"91.988","ARG_OF_PERICENTER":"86.6148","MEAN_MOTION_DOT":"-0.01047570","INCLINATION":"53.2175","TIME_SYSTEM":"UTC","TLE_LINE1":"1 53038U 22076BE  22274.91667824 -.01047570  00000-0 -11469-1 0  9994","ECCENTRICITY":"0.00009630","SITE":"AFETR","EPHEMERIS_TYPE":"0","RCS_SIZE":"LARGE","OBJECT_NAME":"STARLINK-4156","CENTER_NAME":"EARTH","EPOCH":"2022-10-01T22:00:00.999936","PERIAPSIS":"371.374","FILE":"3588835","NORAD_CAT_ID":"53038","MEAN_ANOMALY":"273.7024","RA_OF_ASC_NODE":"312.2100","APOAPSIS":"372.674","OBJECT_ID":"2022-076BE","SEMIMAJOR_AXIS":"6750.159","TLE_LINE2":"2 53038  53.2175 312.2100 0000963  86.6148 273.7024 15.65423057 14080","BSTAR":"-0.01146900000000","MEAN_MOTION":"15.65423057","GP_ID":"213955369","MEAN_MOTION_DDOT":"0.0000000000000","COUNTRY_CODE":"US"},{"INCLINATION":"97.6565","MEAN_MOTION_DOT":"-0.00004527","TIME_SYSTEM":"UTC","TLE_LINE1":"1 53043U 22077A   22274.77859847 -.00004527  00000-0 -34785-3 0  9995","ECCENTRICITY":"0.00022860","EPHEMERIS_TYPE":"0","SITE":"AFWTR","RCS_SIZE":"LARGE","OBJECT_TYPE":"PAYLOAD","MEAN_ELEMENT_THEORY":"SGP4","CLASSIFICATION_TYPE":"U","LAUNCH_DATE":"2022-07-11","REF_FRAME":"TEME","ELEMENT_SET_NO":"999","REV_AT_EPOCH":"1264","ARG_OF_PERICENTER":"43.7703","PERIOD":"95.918","DECAY_DATE":null,"MEAN_MOTION":"15.01284452","GP_ID":"213980310","MEAN_MOTION_DDOT":"0.0000000000000","COUNTRY_CODE":"US","EPOCH":"2022-10-01T18:41:10.907808","OBJECT_NAME":"STARLINK-4362","CENTER_NAME":"EARTH","FILE":"3588844","PERIAPSIS":"561.350","MEAN_ANOMALY":"316.3702","NORAD_CAT_ID":"53043","APOAPSIS":"564.523","RA_OF_ASC_NODE":"94.5635","SEMIMAJOR_AXIS":"6941.071","OBJECT_ID":"2022-077A","BSTAR":"-0.00034785000000","TLE_LINE2":"2 53043  97.6565  94.5635 0002286  43.7703 316.3702 15.01284452 12646"},{"TIME_SYSTEM":"UTC","TLE_LINE1":"1 53044U 22077B   22274.77490464  .00001737  00000-0  13976-3 0  9999","MEAN_MOTION_DOT":"0.00001737","INCLINATION":"97.6562","RCS_SIZE":"LARGE","ECCENTRICITY":"0.00022550","SITE":"AFWTR","EPHEMERIS_TYPE":"0","CLASSIFICATION_TYPE":"U","LAUNCH_DATE":"2022-07-11","OBJECT_TYPE":"PAYLOAD","MEAN_ELEMENT_THEORY":"SGP4","REV_AT_EPOCH":"1264","ELEMENT_SET_NO":"999","DECAY_DATE":null,"PERIOD":"95.919","ARG_OF_PERICENTER":"43.0915","REF_FRAME":"TEME","GP_ID":"213980062","MEAN_MOTION":"15.01264722","COUNTRY_CODE":"US","MEAN_MOTION_DDOT":"0.0000000000000","MEAN_ANOMALY":"317.0486","NORAD_CAT_ID":"53044","OBJECT_NAME":"STARLINK-4349","CENTER_NAME":"EARTH","EPOCH":"2022-10-01T18:35:51.760896","PERIAPSIS":"561.432","FILE":"3588844","SEMIMAJOR_AXIS":"6941.132","OBJECT_ID":"2022-077B","TLE_LINE2":"2 53044  97.6562  94.5609 0002255  43.0915 317.0486 15.01264722 12644","BSTAR":"0.00013976000000","RA_OF_ASC_NODE":"94.5609","APOAPSIS":"564.563"},{"DECAY_DATE":null,"PERIOD":"95.918","ARG_OF_PERICENTER":"44.3565","REV_AT_EPOCH":"1264","ELEMENT_SET_NO":"999","REF_FRAME":"TEME","LAUNCH_DATE":"2022-07-11","CLASSIFICATION_TYPE":"U","MEAN_ELEMENT_THEORY":"SGP4","OBJECT_TYPE":"PAYLOAD","RCS_SIZE":"LARGE","SITE":"AFWTR","EPHEMERIS_TYPE":"0","ECCENTRICITY":"0.00022410","TLE_LINE1":"1 53045U 22077C   22274.77329110 -.00003458  00000-0 -26463-3 0  9998","TIME_SYSTEM":"UTC","MEAN_MOTION_DOT":"-0.00003458","INCLINATION":"97.6560","TLE_LINE2":"2 53045  97.6560  94.5581 0002241  44.3565 315.7838 15.01280235 12645","BSTAR":"-0.00026463000000","SEMIMAJOR_AXIS":"6941.084","OBJECT_ID":"2022-077C","RA_OF_ASC_NODE":"94.5581","APOAPSIS":"564.505","NORAD_CAT_ID":"53045","MEAN_ANOMALY":"315.7838","PERIAPSIS":"561.394","FILE":"3588844","OBJECT_NAME":"STARLINK-4350","CENTER_NAME":"EARTH","EPOCH":"2022-10-01T18:33:32.351040","COUNTRY_CODE":"US","MEAN_MOTION_DDOT":"0.0000000000000","GP_ID":"213980817","MEAN_MOTION":"15.01280235"},{"REF_FRAME":"TEME","REV_AT_EPOCH":"1264","ELEMENT_SET_NO":"999","DECAY_DATE":null,"PERIOD":"95.919","ARG_OF_PERICENTER":"39.4169","OBJECT_TYPE":"PAYLOAD","MEAN_ELEMENT_THEORY":"SGP4","CLASSIFICATION_TYPE":"U","LAUNCH_DATE":"2022-07-11","ECCENTRICITY":"0.00023920","EPHEMERIS_TYPE":"0","SITE":"AFWTR","RCS_SIZE":"LARGE","MEAN_MOTION_DOT":"0.00002040","INCLINATION":"97.6566","TIME_SYSTEM":"UTC","TLE_LINE1":"1 53046U 22077D   22274.77305518  .00002040  00000-0  16334-3 0  9995","RA_OF_ASC_NODE":"94.5575","APOAPSIS":"564.662","SEMIMAJOR_AXIS":"6941.136","OBJECT_ID":"2022-077D","TLE_LINE2":"2 53046  97.6566  94.5575 0002392  39.4169 320.7229 15.01263436 12641","BSTAR":"0.00016334000000","CENTER_NAME":"EARTH","OBJECT_NAME":"STARLINK-4331","EPOCH":"2022-10-01T18:33:11.967552","PERIAPSIS":"561.341","FILE":"3588844","MEAN_ANOMALY":"320.7229","NORAD_CAT_ID":"53046","MEAN_MOTION_DDOT":"0.0000000000000","COUNTRY_CODE":"US","MEAN_MOTION":"15.01263436","GP_ID":"213980231"},{"TIME_SYSTEM":"UTC","TLE_LINE1":"1 53047U 22077E   22274.77119459  .00002580  00000-0  20532-3 0  9997","INCLINATION":"97.6558","MEAN_MOTION_DOT":"0.00002580","RCS_SIZE":"LARGE","ECCENTRICITY":"0.00025530","SITE":"AFWTR","EPHEMERIS_TYPE":"0","CLASSIFICATION_TYPE":"U","LAUNCH_DATE":"2022-07-11","OBJECT_TYPE":"PAYLOAD","MEAN_ELEMENT_THEORY":"SGP4","REV_AT_EPOCH":"1264","ELEMENT_SET_NO":"999","DECAY_DATE":null,"PERIOD":"95.919","ARG_OF_PERICENTER":"57.6982","REF_FRAME":"TEME","GP_ID":"213979893","MEAN_MOTION":"15.01268150","COUNTRY_CODE":"US","MEAN_MOTION_DDOT":"0.0000000000000","MEAN_ANOMALY":"302.4489","NORAD_CAT_ID":"53047","CENTER_NAME":"EARTH","OBJECT_NAME":"STARLINK-4352","EPOCH":"2022-10-01T18:30:31.212576","PERIAPSIS":"561.215","FILE":"3588844","SEMIMAJOR_AXIS":"6941.122","OBJECT_ID":"2022-077E","TLE_LINE2":"2 53047  97.6558  94.5570 0002553  57.6982 302.4489 15.01268150 12645","BSTAR":"0.00020532000000","RA_OF_ASC_NODE":"94.5570","APOAPSIS":"564.759"},{"MEAN_ELEMENT_THEORY":"SGP4","OBJECT_TYPE":"PAYLOAD","LAUNCH_DATE":"2022-07-11","CLASSIFICATION_TYPE":"U","REF_FRAME":"TEME","DECAY_DATE":null,"PERIOD":"95.919","ARG_OF_PERICENTER":"44.4812","REV_AT_EPOCH":"1263","ELEMENT_SET_NO":"999","MEAN_MOTION_DOT":"0.00001783","INCLINATION":"97.6580","TLE_LINE1":"1 53048U 22077F   22274.77143966  .00001783  00000-0  14337-3 0  9998","TIME_SYSTEM":"UTC","SITE":"AFWTR","EPHEMERIS_TYPE":"0","ECCENTRICITY":"0.00023410","RCS_SIZE":"LARGE","PERIAPSIS":"561.358","FILE":"3588844","CENTER_NAME":"EARTH","OBJECT_NAME":"STARLINK-4355","EPOCH":"2022-10-01T18:30:52.386624","MEAN_ANOMALY":"315.6600","NORAD_CAT_ID":"53048","RA_OF_ASC_NODE":"94.5492","APOAPSIS":"564.608","TLE_LINE2":"2 53048  97.6580  94.5492 0002341  44.4812 315.6600 15.01269287 12637","BSTAR":"0.00014337000000","SEMIMAJOR_AXIS":"6941.118","OBJECT_ID":"2022-077F","MEAN_MOTION":"15.01269287","GP_ID":"213980479","MEAN_MOTION_DDOT":"0.0000000000000","COUNTRY_CODE":"US"},{"LAUNCH_DATE":"2022-07-11","CLASSIFICATION_TYPE":"U","MEAN_ELEMENT_THEORY":"SGP4","OBJECT_TYPE":"PAYLOAD","DECAY_DATE":null,"ARG_OF_PERICENTER":"43.4493","PERIOD":"95.919","REV_AT_EPOCH":"1264","ELEMENT_SET_NO":"999","REF_FRAME":"TEME","TLE_LINE1":"1 53049U 22077G   22274.83254130  .00000652  00000-0  55341-4 0  9997","TIME_SYSTEM":"UTC","MEAN_MOTION_DOT":"0.00000652","INCLINATION":"97.6582","RCS_SIZE":"LARGE","SITE":"AFWTR","EPHEMERIS_TYPE":"0","ECCENTRICITY":"0.00021910","NORAD_CAT_ID":"53049","MEAN_ANOMALY":"316.6904","PERIAPSIS":"561.477","FILE":"3588844","CENTER_NAME":"EARTH","OBJECT_NAME":"STARLINK-4345","EPOCH":"2022-10-01T19:58:51.568320","TLE_LINE2":"2 53049  97.6582  94.6104 0002191  43.4493 316.6904 15.01264436 12648","BSTAR":"0.00005534100000","SEMIMAJOR_AXIS":"6941.133","OBJECT_ID":"2022-077G","RA_OF_ASC_NODE":"94.6104","APOAPSIS":"564.519","GP_ID":"213981072","MEAN_MOTION":"15.01264436","COUNTRY_CODE":"US","MEAN_MOTION_DDOT":"0.0000000000000"},{"REF_FRAME":"TEME","ARG_OF_PERICENTER":"53.4395","PERIOD":"95.919","DECAY_DATE":null,"ELEMENT_SET_NO":"999","REV_AT_EPOCH":"1259","MEAN_ELEMENT_THEORY":"SGP4","OBJECT_TYPE":"PAYLOAD","LAUNCH_DATE":"2022-07-11","CLASSIFICATION_TYPE":"U","SITE":"AFWTR","EPHEMERIS_TYPE":"0","ECCENTRICITY":"0.00022340","RCS_SIZE":"LARGE","INCLINATION":"97.6569","MEAN_MOTION_DOT":"-0.00000030","TLE_LINE1":"1 53050U 22077H   22274.50273946 -.00000030  00000-0  22726-5 0  9992","TIME_SYSTEM":"UTC","APOAPSIS":"564.565","RA_OF_ASC_NODE":"94.2861","TLE_LINE2":"2 53050  97.6569  94.2861 0002234  53.4395 306.7035 15.01259331 12598","BSTAR":"0.00000227260000","SEMIMAJOR_AXIS":"6941.149","OBJECT_ID":"2022-077H","FILE":"3588593","PERIAPSIS":"561.463","EPOCH":"2022-10-01T12:03:56.689344","OBJECT_NAME":"STARLINK-4343","CENTER_NAME":"EARTH","MEAN_ANOMALY":"306.7035","NORAD_CAT_ID":"53050","MEAN_MOTION_DDOT":"0.0000000000000","COUNTRY_CODE":"US","MEAN_MOTION":"15.01259331","GP_ID":"213949888"}];
